HST                     
1 20580U 90037B   26199.75945338  .00002987  00000+0  89242-4 0  9999
2 20580  28.4721 224.7316 0002157 138.2222 221.8539 15.31081460793414
POLAR                   
1 23802U 96013A   26198.07629098  .00000165  00000+0  00000+0 0  9991
2 23802  79.8950 226.6973 6500355 208.0495  91.8485  1.29846054145242
SWAS                    
1 25560U 98071A   26199.81920926  .00001480  00000+0  97973-4 0  9998
2 25560  69.8943 145.9364 0007676 226.5752 133.4774 15.09759831502044
CXO                     
1 25867U 99040B   26201.11356867  .00000551  00000+0  00000+0 0  9997
2 25867  56.6395 115.7467 7780937 310.0076   0.5836  0.37806069 17440
XMM-NEWTON              
1 25989U 99066A   26201.25992622 -.00000007  00000+0  00000+0 0  9997
2 25989  64.3074 282.5600 4664570  64.3171   0.0365  0.50127970 23163
TERRA                   
1 25994U 99068A   26199.80267962  .00000157  00000+0  40867-4 0  9999
2 25994  97.9439 248.0926 0003541 115.7251 355.8160 14.61125268414225
CLUSTER II-FM7 (SAMBA)  
1 26410U 00041A   26201.60153465  .00010309 -30419-5  00000+0 0  9994
2 26410 149.8022  56.9138 9091736 274.4937 359.4015  0.44849809 20469
CLUSTER II-FM8 (TANGO)  
1 26464U 00045B   26197.70219189  .00011360  00000+0  00000+0 0  9992
2 26464 150.0277  57.4160 9093364 274.7881   2.0004  0.44421164 20442
ODIN                    
1 26702U 01007A   26199.57788139  .00293286  34125-4  91784-3 0  9991
2 26702  97.3687 242.8555 0005108 151.5829 208.5724 15.91446759394369
TIMED                   
1 26998U 01055B   26199.72049755  .00000506  00000+0  49449-4 0  9995
2 26998  74.0668 171.5234 0002316 296.9180  63.1768 14.95348507335533
CORIOLIS                
1 27640U 03001A   26199.76544073  .00000032  00000+0  35345-4 0  9994
2 27640  98.7135 206.1691 0015061 119.6712 240.5966 14.19952397218709
SORCE                   
1 27651U 03004A   26199.75088091  .00001149  00000+0  92696-4 0  9993
2 27651  39.9915  81.5714 0018765 278.2999  81.5667 15.03851306276659
MOST                    
1 27843U 03031D   26199.74898088  .00000007  00000+0  23259-4 0  9991
2 27843  98.7054 207.0353 0010302 155.2279 204.9395 14.21328101195196
SCISAT 1                
1 27858U 03036A   26199.82913566  .00000249  00000+0  36484-4 0  9992
2 27858  73.9301 108.4748 0007198 175.5957 184.5284 14.81481165236137
SWIFT                   
1 28485U 04047A   26199.57643796  .00039733  00000+0  28862-3 0  9999
2 28485  20.5525 302.2090 0002527  57.1497 302.9192 15.71432448191807
HINODE (SOLAR-B)        
1 29479U 06041A   26199.45750348  .00000261  00000+0  53208-4 0  9995
2 29479  98.0548 215.1492 0017289 183.9439 176.1633 14.68660447 59462
SHIJIAN-6 02A (SJ-6 02A)
1 29505U 06046A   26199.81652028  .00000769  00000+0  42106-4 0  9994
2 29505  97.6338 241.1248 0004137  55.5562 304.6062 15.17263412 77067
SHIJIAN-6 02B (SJ-6 02B)
1 29506U 06046B   26199.86959347  .00000272  00000+0  25776-4 0  9997
2 29506  97.7139 228.7318 0012921 323.2795  36.7543 15.01440556 75491
FGRST (GLAST)           
1 33053U 08029A   26199.72212139  .00001797  00000+0  58465-4 0  9992
2 33053  25.5830 345.4947 0007947 342.2061  17.8198 15.24087847   505
SDO                     
1 36395U 10005A   26199.24005113 -.00000094  00000+0  00000+0 0  9997
2 36395  34.7143  85.8693 0001755  43.0517 151.3467  1.00277384 60372
CRYOSAT 2               
1 36508U 10013A   26199.85371477  .00000077  00000+0  18453-4 0  9994
2 36508  92.0357 284.9999 0002438  98.8131 261.3353 14.51899120862679
X-SAT                   
1 37389U 11015C   26199.88805625  .00000145  00000+0  79254-4 0  9997
2 37389  98.3535 175.4050 0012765 248.7505 111.2312 14.25214945792195
GCOM-W1 (SHIZUKU)       
1 38337U 12025A   26199.83316295  .00000191  00000+0  52550-4 0  9999
2 38337  98.2024 139.9102 0001279  78.8347  16.6223 14.57091873753642
NUSTAR                  
1 38358U 12031A   26199.91668980  .00004391  00000+0  21631-3 0  9990
2 38358   6.0250 156.0793 0008462 227.2463 253.8318 15.09060422  1302
NEOSSAT                 
1 39089U 13009D   26199.42897953  .00000042  00000+0  29219-4 0  9998
2 39089  98.4192  18.7209 0011630 148.0748 212.1145 14.35836280701222
BRITE-AUSTRIA           
1 39091U 13009F   26199.48169857  .00000062  00000+0  35786-4 0  9990
2 39091  98.4011  18.1453 0010939 141.4907 218.7063 14.36553265701541
IRIS                    
1 39197U 13033A   26199.14119398  .00000490  00000+0  62352-4 0  9996
2 39197  97.9318  38.3206 0023518 214.9300 145.0373 14.85940228704971
HISAKI (SPRINT-A)       
1 39253U 13049A   26199.87097000  .00000091  00000+0  32967-4 0  9997
2 39253  29.7217  58.9250 0136974 273.6624  84.8293 13.55546936635725
CASSIOPE                
1 39265U 13055A   26199.82062765  .00015660 -53280-6  16750-3 0  9997
2 39265  80.9131  28.2203 0282199 315.5871  42.3033 15.27541821672496
STSAT-3                 
1 39422U 13066G   26199.87263431  .00001785  00000+0  13743-3 0  9998
2 39422  97.6205 169.2497 0008836 290.1985  69.8290 15.02899545688967
SWARM B                 
1 39451U 13067A   26199.81789418  .00001836  00000+0  64460-4 0  9993
2 39451  87.7464 332.7084 0002226  86.2502 273.9002 15.28730532688070
