OBJECT_NAME,OBJECT_ID,EPOCH,MEAN_MOTION,ECCENTRICITY,INCLINATION,RA_OF_ASC_NODE,ARG_OF_PERICENTER,MEAN_ANOMALY,EPHEMERIS_TYPE,CLASSIFICATION_TYPE,NORAD_CAT_ID,ELEMENT_SET_NO,REV_AT_EPOCH,BSTAR,MEAN_MOTION_DOT,MEAN_MOTION_DDOT
HST,1990-037B,2026-07-18T18:13:36.772032,15.31081460,.0002157,28.4721,224.7316,138.2222,221.8539,0,U,20580,999,79341,.89242E-4,.2987E-4,0
POLAR,1996-013A,2026-07-17T01:49:51.540672,1.29846054,.65003559,79.8950,226.6973,208.0495,91.8485,0,U,23802,999,14524,0,.165E-5,0
SWAS,1998-071A,2026-07-18T19:39:39.680064,15.09759831,.0007676,69.8943,145.9364,226.5752,133.4774,0,U,25560,999,50204,.97973E-4,.148E-4,0
CXO,1999-040B,2026-07-20T02:43:32.333088,0.37806069,.7780937,56.6395,115.7467,310.0076,0.5836,0,U,25867,999,1744,0,.551E-5,0
XMM-NEWTON,1999-066A,2026-07-20T06:14:17.625408,0.50127970,.46645709,64.3074,282.5600,64.3171,0.0365,0,U,25989,999,2316,0,-.7E-7,0
TERRA,1999-068A,2026-07-18T19:15:51.519168,14.61125268,.0003541,97.9439,248.0926,115.7251,355.8160,0,U,25994,999,41422,.40867E-4,.157E-5,0
CLUSTER II-FM7 (SAMBA),2000-041A,2026-07-20T14:26:12.593760,0.44849809,.9091736,149.8022,56.9138,274.4937,359.4015,0,U,26410,999,2046,0,.10309E-3,-.30419E-5
CLUSTER II-FM8 (TANGO),2000-045B,2026-07-16T16:51:09.379296,0.44421164,.9093364,150.0277,57.4160,274.7881,2.0004,0,U,26464,999,2044,0,.1136E-3,0
ODIN,2001-007A,2026-07-18T13:52:08.952096,15.91446759,.0005108,97.3687,242.8555,151.5829,208.5724,0,U,26702,999,39436,.91784E-3,.293286E-2,.34125E-4
TIMED,2001-055B,2026-07-18T17:17:30.988320,14.95348507,.0002316,74.0668,171.5234,296.9180,63.1768,0,U,26998,999,33553,.49449E-4,.506E-5,0
CORIOLIS,2003-001A,2026-07-18T18:22:14.079072,14.19952397,.0015061,98.7135,206.1691,119.6712,240.5966,0,U,27640,999,21870,.35345E-4,.32E-6,0
SORCE,2003-004A,2026-07-18T18:01:16.110624,15.03851306,.0018765,39.9915,81.5714,278.2999,81.5667,0,U,27651,999,27665,.92696E-4,.1149E-4,0
MOST,2003-031D,2026-07-18T17:58:31.948032,14.21328101,.0010302,98.7054,207.0353,155.2279,204.9395,0,U,27843,999,19519,.23259E-4,.7E-7,0
SCISAT 1,2003-036A,2026-07-18T19:53:57.321024,14.81481165,.0007198,73.9301,108.4748,175.5957,184.5284,0,U,27858,999,23613,.36484E-4,.249E-5,0
SWIFT,2004-047A,2026-07-18T13:50:04.239744,15.71432448,.0002527,20.5525,302.2090,57.1497,302.9192,0,U,28485,999,19180,.28862E-3,.39733E-3,0
HINODE (SOLAR-B),2006-041A,2026-07-18T10:58:48.300672,14.68660447,.0017289,98.0548,215.1492,183.9439,176.1633,0,U,29479,999,5946,.53207858E-4,.261E-5,0
SHIJIAN-6 02A (SJ-6 02A),2006-046A,2026-07-18T19:35:47.352192,15.17263412,.0004137,97.6338,241.1248,55.5562,304.6062,0,U,29505,999,7706,.42106E-4,.769E-5,0
SHIJIAN-6 02B (SJ-6 02B),2006-046B,2026-07-18T20:52:12.875808,15.01440556,.0012921,97.7139,228.7318,323.2795,36.7543,0,U,29506,999,7549,.25776E-4,.272E-5,0
FGRST (GLAST),2008-029A,2026-07-18T17:19:51.288096,15.24087847,.0007947,25.5830,345.4947,342.2061,17.8198,0,U,33053,999,50,.58465E-4,.1797E-4,0
SDO,2010-005A,2026-07-18T05:45:40.417632,1.00277384,.00017554,34.7143,85.8693,43.0517,151.3467,0,U,36395,999,6037,0,-.94E-6,0
CRYOSAT 2,2010-013A,2026-07-18T20:29:20.956128,14.51899120,.0002438,92.0357,284.9999,98.8131,261.3353,0,U,36508,999,86267,.18453E-4,.77E-6,0
X-SAT,2011-015C,2026-07-18T21:18:48.060000,14.25214945,.0012765,98.3535,175.4050,248.7505,111.2312,0,U,37389,999,79219,.79254E-4,.145E-5,0
GCOM-W1 (SHIZUKU),2012-025A,2026-07-18T19:59:45.278880,14.57091873,.0001279,98.2024,139.9102,78.8347,16.6223,0,U,38337,999,75364,.5255E-4,.191E-5,0
NUSTAR,2012-031A,2026-07-18T22:00:01.998720,15.09060422,.0008462,6.0250,156.0793,227.2463,253.8318,0,U,38358,999,130,.21631E-3,.4391E-4,0
NEOSSAT,2013-009D,2026-07-18T10:17:43.831392,14.35836280,.00116305,98.4192,18.7209,148.0748,212.1145,0,U,39089,999,70122,.29218757E-4,.42E-6,0
BRITE-AUSTRIA,2013-009F,2026-07-18T11:33:38.756448,14.36553265,.00109399,98.4011,18.1453,141.4907,218.7063,0,U,39091,999,70154,.35785691E-4,.62E-6,0
IRIS,2013-033A,2026-07-18T03:23:19.159872,14.85940228,.00235188,97.9318,38.3206,214.9300,145.0373,0,U,39197,999,70497,.62351597E-4,.49E-5,0
HISAKI (SPRINT-A),2013-049A,2026-07-18T20:54:11.808000,13.55546936,.0136974,29.7217,58.9250,273.6624,84.8293,0,U,39253,999,63572,.32967E-4,.91E-6,0
CASSIOPE,2013-055A,2026-07-18T19:41:42.228960,15.27541821,.0282199,80.9131,28.2203,315.5871,42.3033,0,U,39265,999,67249,.1675E-3,.1566E-3,-.5328E-6
STSAT-3,2013-066G,2026-07-18T20:56:35.604384,15.02899545,.0008836,97.6205,169.2497,290.1985,69.8290,0,U,39422,999,68896,.13743E-3,.1785E-4,0
SWARM B,2013-067A,2026-07-18T19:37:46.057152,15.28730532,.0002226,87.7464,332.7084,86.2502,273.9002,0,U,39451,999,68807,.6446E-4,.1836E-4,0
